CCSDS_OMM_VERS = 2.0
CREATION_DATE  = 
ORIGINATOR     = 

OBJECT_NAME    = HULIANWANG DIGUI-124
OBJECT_ID      = 2025-295F
CENTER_NAME    = EARTH
REF_FRAME      = TEME
TIME_SYSTEM    = UTC
MEAN_ELEMENT_THEORY = SGP/SGP4

EPOCH          = 2026-01-07T20:34:07.138848
MEAN_MOTION    = 14.22844136
ECCENTRICITY   = .00081367
INCLINATION    = 50.0002
RA_OF_ASC_NODE = 262.0332
ARG_OF_PERICENTER = 340.7156
MEAN_ANOMALY   = 19.3447

EPHEMERIS_TYPE = 0
CLASSIFICATION_TYPE = U
NORAD_CAT_ID   = 67064
ELEMENT_SET_NO = 999
REV_AT_EPOCH   = 384
BSTAR          = .11772669E-3
MEAN_MOTION_DOT = .107E-5
MEAN_MOTION_DDOT = 0

CCSDS_OMM_VERS = 2.0
CREATION_DATE  = 
ORIGINATOR     = 

OBJECT_NAME    = HULIANWANG DIGUI-125
OBJECT_ID      = 2025-295G
CENTER_NAME    = EARTH
REF_FRAME      = TEME
TIME_SYSTEM    = UTC
MEAN_ELEMENT_THEORY = SGP/SGP4

EPOCH          = 2026-01-07T20:32:27.167136
MEAN_MOTION    = 14.23202974
ECCENTRICITY   = .00059315
INCLINATION    = 49.9975
RA_OF_ASC_NODE = 262.0079
ARG_OF_PERICENTER = 335.0916
MEAN_ANOMALY   = 24.9710

EPHEMERIS_TYPE = 0
CLASSIFICATION_TYPE = U
NORAD_CAT_ID   = 67065
ELEMENT_SET_NO = 999
REV_AT_EPOCH   = 384
BSTAR          = .10984033E-3
MEAN_MOTION_DOT = .91E-6
MEAN_MOTION_DDOT = 0

CCSDS_OMM_VERS = 2.0
CREATION_DATE  = 
ORIGINATOR     = 

OBJECT_NAME    = HULIANWANG DIGUI-126
OBJECT_ID      = 2025-295H
CENTER_NAME    = EARTH
REF_FRAME      = TEME
TIME_SYSTEM    = UTC
MEAN_ELEMENT_THEORY = SGP/SGP4

EPOCH          = 2026-01-07T20:29:57.442848
MEAN_MOTION    = 14.23288571
ECCENTRICITY   = .00075225
INCLINATION    = 50.0037
RA_OF_ASC_NODE = 262.0099
ARG_OF_PERICENTER = 337.4231
MEAN_ANOMALY   = 22.6350

EPHEMERIS_TYPE = 0
CLASSIFICATION_TYPE = U
NORAD_CAT_ID   = 67066
ELEMENT_SET_NO = 999
REV_AT_EPOCH   = 384
BSTAR          = .77300445E-4
MEAN_MOTION_DOT = .17E-6
MEAN_MOTION_DDOT = 0

CCSDS_OMM_VERS = 2.0
CREATION_DATE  = 
ORIGINATOR     = 

OBJECT_NAME    = HULIANWANG DIGUI-127
OBJECT_ID      = 2025-295J
CENTER_NAME    = EARTH
REF_FRAME      = TEME
TIME_SYSTEM    = UTC
MEAN_ELEMENT_THEORY = SGP/SGP4

EPOCH          = 2026-01-07T20:28:23.354112
MEAN_MOTION    = 14.23314493
ECCENTRICITY   = .00069828
INCLINATION    = 50.0077
RA_OF_ASC_NODE = 262.0144
ARG_OF_PERICENTER = 344.1809
MEAN_ANOMALY   = 15.8885

EPHEMERIS_TYPE = 0
CLASSIFICATION_TYPE = U
NORAD_CAT_ID   = 67067
ELEMENT_SET_NO = 999
REV_AT_EPOCH   = 384
BSTAR          = -.37423094E-3
MEAN_MOTION_DOT = -.1013E-4
MEAN_MOTION_DDOT = 0

CCSDS_OMM_VERS = 2.0
CREATION_DATE  = 
ORIGINATOR     = 

OBJECT_NAME    = CZ-12 R/B
OBJECT_ID      = 2025-295K
CENTER_NAME    = EARTH
REF_FRAME      = TEME
TIME_SYSTEM    = UTC
MEAN_ELEMENT_THEORY = SGP/SGP4

EPOCH          = 2026-01-07T21:46:11.098560
MEAN_MOTION    = 14.41136426
ECCENTRICITY   = .00568649
INCLINATION    = 49.9930
RA_OF_ASC_NODE = 258.8838
ARG_OF_PERICENTER = 229.6658
MEAN_ANOMALY   = 129.9287

EPHEMERIS_TYPE = 0
CLASSIFICATION_TYPE = U
NORAD_CAT_ID   = 67068
ELEMENT_SET_NO = 999
REV_AT_EPOCH   = 388
BSTAR          = .42860239E-4
MEAN_MOTION_DOT = -.26E-6
MEAN_MOTION_DDOT = 0

CCSDS_OMM_VERS = 2.0
CREATION_DATE  = 
ORIGINATOR     = 

OBJECT_NAME    = XIWANG-5 02
OBJECT_ID      = 2025-296A
CENTER_NAME    = EARTH
REF_FRAME      = TEME
TIME_SYSTEM    = UTC
MEAN_ELEMENT_THEORY = SGP/SGP4

EPOCH          = 2026-01-07T22:43:05.821824
MEAN_MOTION    = 15.13183325
ECCENTRICITY   = .00017275
INCLINATION    = 41.3527
RA_OF_ASC_NODE = 312.6109
ARG_OF_PERICENTER = 344.8234
MEAN_ANOMALY   = 15.2533

EPHEMERIS_TYPE = 0
CLASSIFICATION_TYPE = U
NORAD_CAT_ID   = 67069
ELEMENT_SET_NO = 999
REV_AT_EPOCH   = 393
BSTAR          = .56105563E-3
MEAN_MOTION_DOT = .9962E-4
MEAN_MOTION_DDOT = 0

CCSDS_OMM_VERS = 2.0
CREATION_DATE  = 
ORIGINATOR     = 

OBJECT_NAME    = DEAR-5
OBJECT_ID      = 2025-296B
CENTER_NAME    = EARTH
REF_FRAME      = TEME
TIME_SYSTEM    = UTC
MEAN_ELEMENT_THEORY = SGP/SGP4

EPOCH          = 2026-01-07T23:18:40.705344
MEAN_MOTION    = 15.17031923
ECCENTRICITY   = .00201707
INCLINATION    = 41.3575
RA_OF_ASC_NODE = 311.9358
ARG_OF_PERICENTER = 204.1899
MEAN_ANOMALY   = 155.7976

EPHEMERIS_TYPE = 0
CLASSIFICATION_TYPE = U
NORAD_CAT_ID   = 67070
ELEMENT_SET_NO = 999
REV_AT_EPOCH   = 393
BSTAR          = .19428684E-3
MEAN_MOTION_DOT = .3731E-4
MEAN_MOTION_DDOT = 0

CCSDS_OMM_VERS = 2.0
CREATION_DATE  = 
ORIGINATOR     = 

OBJECT_NAME    = RAISE-4
OBJECT_ID      = 2025-297B
CENTER_NAME    = EARTH
REF_FRAME      = TEME
TIME_SYSTEM    = UTC
MEAN_ELEMENT_THEORY = SGP/SGP4

EPOCH          = 2026-01-07T22:07:49.937664
MEAN_MOTION    = 15.07431574
ECCENTRICITY   = .00117563
INCLINATION    = 97.4867
RA_OF_ASC_NODE = 159.7696
ARG_OF_PERICENTER = 222.5224
MEAN_ANOMALY   = 137.5094

EPHEMERIS_TYPE = 0
CLASSIFICATION_TYPE = U
NORAD_CAT_ID   = 67073
ELEMENT_SET_NO = 999
REV_AT_EPOCH   = 373
BSTAR          = .26231099E-3
MEAN_MOTION_DOT = .3918E-4
MEAN_MOTION_DDOT = 0

CCSDS_OMM_VERS = 2.0
CREATION_DATE  = 
ORIGINATOR     = 

OBJECT_NAME    = ELECTRON KICK STAGE R/B
OBJECT_ID      = 2025-297C
CENTER_NAME    = EARTH
REF_FRAME      = TEME
TIME_SYSTEM    = UTC
MEAN_ELEMENT_THEORY = SGP/SGP4

EPOCH          = 2026-01-07T22:56:58.769664
MEAN_MOTION    = 15.72953033
ECCENTRICITY   = .01489031
INCLINATION    = 97.4770
RA_OF_ASC_NODE = 161.8936
ARG_OF_PERICENTER = 173.6331
MEAN_ANOMALY   = 186.6873

EPHEMERIS_TYPE = 0
CLASSIFICATION_TYPE = U
NORAD_CAT_ID   = 67074
ELEMENT_SET_NO = 999
REV_AT_EPOCH   = 387
BSTAR          = .17943181E-2
MEAN_MOTION_DOT = .489668E-2
MEAN_MOTION_DDOT = .76954817E-4

CCSDS_OMM_VERS = 2.0
CREATION_DATE  = 
ORIGINATOR     = 

OBJECT_NAME    = STARLINK-36230
OBJECT_ID      = 2025-298A
CENTER_NAME    = EARTH
REF_FRAME      = TEME
TIME_SYSTEM    = UTC
MEAN_ELEMENT_THEORY = SGP/SGP4

EPOCH          = 2026-01-07T14:17:00.877920
MEAN_MOTION    = 15.52695825
ECCENTRICITY   = .00034809
INCLINATION    = 70.0001
RA_OF_ASC_NODE = 177.4127
ARG_OF_PERICENTER = 279.4800
MEAN_ANOMALY   = 80.5994

EPHEMERIS_TYPE = 0
CLASSIFICATION_TYPE = U
NORAD_CAT_ID   = 67075
ELEMENT_SET_NO = 999
REV_AT_EPOCH   = 384
BSTAR          = .16970732E-2
MEAN_MOTION_DOT = .106321E-2
MEAN_MOTION_DDOT = 0

CCSDS_OMM_VERS = 2.0
CREATION_DATE  = 
ORIGINATOR     = 

OBJECT_NAME    = STARLINK-36240
OBJECT_ID      = 2025-298B
CENTER_NAME    = EARTH
REF_FRAME      = TEME
TIME_SYSTEM    = UTC
MEAN_ELEMENT_THEORY = SGP/SGP4

EPOCH          = 2026-01-07T17:22:10.892352
MEAN_MOTION    = 15.52363561
ECCENTRICITY   = .00025831
INCLINATION    = 70.0003
RA_OF_ASC_NODE = 177.0581
ARG_OF_PERICENTER = 256.0757
MEAN_ANOMALY   = 104.0142

EPHEMERIS_TYPE = 0
CLASSIFICATION_TYPE = U
NORAD_CAT_ID   = 67076
ELEMENT_SET_NO = 999
REV_AT_EPOCH   = 386
BSTAR          = -.86094253E-3
MEAN_MOTION_DOT = -.52487E-3
MEAN_MOTION_DDOT = 0

CCSDS_OMM_VERS = 2.0
CREATION_DATE  = 
ORIGINATOR     = 

OBJECT_NAME    = STARLINK-36243
OBJECT_ID      = 2025-298C
CENTER_NAME    = EARTH
REF_FRAME      = TEME
TIME_SYSTEM    = UTC
MEAN_ELEMENT_THEORY = SGP/SGP4

EPOCH          = 2026-01-07T22:00:01.999584
MEAN_MOTION    = 15.42585899
ECCENTRICITY   = .00041442
INCLINATION    = 70.0002
RA_OF_ASC_NODE = 176.5761
ARG_OF_PERICENTER = 281.6421
MEAN_ANOMALY   = 35.7327

EPHEMERIS_TYPE = 0
CLASSIFICATION_TYPE = U
NORAD_CAT_ID   = 67077
ELEMENT_SET_NO = 999
REV_AT_EPOCH   = 518
BSTAR          = .18736283E-2
MEAN_MOTION_DOT = .82442E-3
MEAN_MOTION_DDOT = 0

CCSDS_OMM_VERS = 2.0
CREATION_DATE  = 
ORIGINATOR     = 

OBJECT_NAME    = STARLINK-36236
OBJECT_ID      = 2025-298D
CENTER_NAME    = EARTH
REF_FRAME      = TEME
TIME_SYSTEM    = UTC
MEAN_ELEMENT_THEORY = SGP/SGP4

EPOCH          = 2026-01-07T22:00:01.999584
MEAN_MOTION    = 15.44900666
ECCENTRICITY   = .00036156
INCLINATION    = 70.0003
RA_OF_ASC_NODE = 176.5504
ARG_OF_PERICENTER = 277.7074
MEAN_ANOMALY   = 60.9247

EPHEMERIS_TYPE = 0
CLASSIFICATION_TYPE = U
NORAD_CAT_ID   = 67078
ELEMENT_SET_NO = 999
REV_AT_EPOCH   = 518
BSTAR          = -.51670558E-1
MEAN_MOTION_DOT = -.2154786E-1
MEAN_MOTION_DDOT = 0

CCSDS_OMM_VERS = 2.0
CREATION_DATE  = 
ORIGINATOR     = 

OBJECT_NAME    = STARLINK-36159
OBJECT_ID      = 2025-298E
CENTER_NAME    = EARTH
REF_FRAME      = TEME
TIME_SYSTEM    = UTC
MEAN_ELEMENT_THEORY = SGP/SGP4

EPOCH          = 2026-01-07T21:36:52.280640
MEAN_MOTION    = 15.42731129
ECCENTRICITY   = .00034729
INCLINATION    = 70.0004
RA_OF_ASC_NODE = 176.8810
ARG_OF_PERICENTER = 276.7072
MEAN_ANOMALY   = 83.3714

EPHEMERIS_TYPE = 0
CLASSIFICATION_TYPE = U
NORAD_CAT_ID   = 67079
ELEMENT_SET_NO = 999
REV_AT_EPOCH   = 388
BSTAR          = .88600451E-3
MEAN_MOTION_DOT = .38873E-3
MEAN_MOTION_DDOT = 0

CCSDS_OMM_VERS = 2.0
CREATION_DATE  = 
ORIGINATOR     = 

OBJECT_NAME    = STARLINK-36158
OBJECT_ID      = 2025-298F
CENTER_NAME    = EARTH
REF_FRAME      = TEME
TIME_SYSTEM    = UTC
MEAN_ELEMENT_THEORY = SGP/SGP4

EPOCH          = 2026-01-07T22:00:01.999584
MEAN_MOTION    = 15.42695173
ECCENTRICITY   = .00038559
INCLINATION    = 70.0002
RA_OF_ASC_NODE = 176.6006
ARG_OF_PERICENTER = 273.3860
MEAN_ANOMALY   = 21.8953

EPHEMERIS_TYPE = 0
CLASSIFICATION_TYPE = U
NORAD_CAT_ID   = 67080
ELEMENT_SET_NO = 999
REV_AT_EPOCH   = 512
BSTAR          = .14638313E-2
MEAN_MOTION_DOT = .64461E-3
MEAN_MOTION_DDOT = 0

